{"type": "FeatureCollection", "features": [ {"type": "Feature", "properties": {"norad_id": 35018, "name": "COSMOS 2251 DEB", "group": "cosmos-2251-debris", "lat": -57.0792728029371, "lon": -34.12135451445482, "alt_km": 1235.407025919164, "timestamp": "2025-12-06T22:38:43.124826+00:00", "meta": {"OBJECT_NAME": "COSMOS 2251 DEB", "OBJECT_ID": "1993-036AGF", "EPOCH": "2025-12-06T02:09:09.614304", "MEAN_MOTION": 13.67097008, "ECCENTRICITY": 0.03484332, "INCLINATION": 73.9753, "RA_OF_ASC_NODE": 120.9327, "ARG_OF_PERICENTER": 31.5625, "MEAN_ANOMALY": 330.5881, "EPHEMERIS_TYPE": 0, "CLASSIFICATION_TYPE": "U", "NORAD_CAT_ID": 35018, "ELEMENT_SET_NO": 999, "REV_AT_EPOCH": 83095, "BSTAR": 0.0012068717, "MEAN_MOTION_DOT": 1.517e-05, "MEAN_MOTION_DDOT": 0}, "tle": {"line1": "1 35018U 93036AGF 25340.08969461  .00001517  00000+0  12069-2 0  9998", "line2": "2 35018  73.9753 120.9327 0348433  31.5625 330.5881 13.67097008830958"}}, "geometry": {"type": "Point", "coordinates": [-34.12135451445482, -57.0792728029371]}}, {"type": "Feature", "properties": {"norad_id": 35020, "name": "COSMOS 2251 DEB", "group": "cosmos-2251-debris", "lat": 42.6142929935328, "lon": -134.6909953110914, "alt_km": 667.9633121004717, "timestamp": "2025-12-06T22:38:43.124836+00:00", "meta": {"OBJECT_NAME": "COSMOS 2251 DEB", "OBJECT_ID": "1993-036AGH", "EPOCH": "2025-12-06T07:40:15.826368", "MEAN_MOTION": 14.62789387, "ECCENTRICITY": 0.00908741, "INCLINATION": 74.0462, "RA_OF_ASC_NODE": 211.245, "ARG_OF_PERICENTER": 326.7927, "MEAN_ANOMALY": 32.7555, "EPHEMERIS_TYPE": 0, "CLASSIFICATION_TYPE": "U", "NORAD_CAT_ID": 35020, "ELEMENT_SET_NO": 999, "REV_AT_EPOCH": 88144, "BSTAR": 0.00031765103, "MEAN_MOTION_DOT": 1.686e-05, "MEAN_MOTION_DDOT": 0}, "tle": {"line1": "1 35020U 93036AGH 25340.31962762  .00001686  00000+0  31765-3 0  9996", "line2": "2 35020  74.0462 211.2450 0090874 326.7927  32.7555 14.62789387881441"}}, "geometry": {"type": "Point", "coordinates": [-134.6909953110914, 42.6142929935328]}}, {"type": "Feature", "properties": {"norad_id": 35022, "name": "COSMOS 2251 DEB", "group": "cosmos-2251-debris", "lat": 41.48558249143904, "lon": 138.3460274629627, "alt_km": 660.617474934752, "timestamp": "2025-12-06T22:38:43.124846+00:00", "meta": {"OBJECT_NAME": "COSMOS 2251 DEB", "OBJECT_ID": "1993-036AGK", "EPOCH": "2025-12-02T17:45:34.658208", "MEAN_MOTION": 14.60763876, "ECCENTRICITY": 0.00472905, "INCLINATION": 74.0262, "RA_OF_ASC_NODE": 341.0512, "ARG_OF_PERICENTER": 183.6288, "MEAN_ANOMALY": 176.4543, "EPHEMERIS_TYPE": 0, "CLASSIFICATION_TYPE": "U", "NORAD_CAT_ID": 35022, "ELEMENT_SET_NO": 999, "REV_AT_EPOCH": 58997, "BSTAR": 0.00056913021, "MEAN_MOTION_DOT": 2.791e-05, "MEAN_MOTION_DDOT": 0}, "tle": {"line1": "1 35022U 93036AGK 25336.73998447  .00002791  00000+0  56913-3 0  9998", "line2": "2 35022  74.0262 341.0512 0047290 183.6288 176.4543 14.60763876589975"}}, "geometry": {"type": "Point", "coordinates": [138.3460274629627, 41.48558249143904]}}, {"type": "Feature", "properties": {"norad_id": 35023, "name": "COSMOS 2251 DEB", "group": "cosmos-2251-debris", "lat": -38.32217611410895, "lon": -148.8019004460654, "alt_km": 566.1864225452673, "timestamp": "2025-12-06T22:38:43.124856+00:00", "meta": {"OBJECT_NAME": "COSMOS 2251 DEB", "OBJECT_ID": "1993-036AGL", "EPOCH": "2025-12-06T10:47:49.492032", "MEAN_MOTION": 14.94792784, "ECCENTRICITY": 0.0034268, "INCLINATION": 74.0377, "RA_OF_ASC_NODE": 225.268, "ARG_OF_PERICENTER": 304.2691, "MEAN_ANOMALY": 240.0516, "EPHEMERIS_TYPE": 0, "CLASSIFICATION_TYPE": "U", "NORAD_CAT_ID": 35023, "ELEMENT_SET_NO": 999, "REV_AT_EPOCH": 88185, "BSTAR": 0.0029037203, "MEAN_MOTION_DOT": 0.00032067, "MEAN_MOTION_DDOT": 0}, "tle": {"line1": "1 35023U 93036AGL 25340.44987838  .00032067  00000+0  29037-2 0  9999", "line2": "2 35023  74.0377 225.2680 0034268 304.2691 240.0516 14.94792784881859"}}, "geometry": {"type": "Point", "coordinates": [-148.8019004460654, -38.32217611410895]}}, {"type": "Feature", "properties": {"norad_id": 35025, "name": "COSMOS 2251 DEB", "group": "cosmos-2251-debris", "lat": 38.76899333293387, "lon": -119.09523345464399, "alt_km": 701.275905834048, "timestamp": "2025-12-06T22:38:43.124871+00:00", "meta": {"OBJECT_NAME": "COSMOS 2251 DEB", "OBJECT_ID": "1993-036AGN", "EPOCH": "2025-12-05T13:24:32.861952", "MEAN_MOTION": 14.72652613, "ECCENTRICITY": 0.00847967, "INCLINATION": 73.9386, "RA_OF_ASC_NODE": 76.9946, "ARG_OF_PERICENTER": 351.3968, "MEAN_ANOMALY": 8.5744, "EPHEMERIS_TYPE": 0, "CLASSIFICATION_TYPE": "U", "NORAD_CAT_ID": 35025, "ELEMENT_SET_NO": 999, "REV_AT_EPOCH": 88537, "BSTAR": 0.00071609127, "MEAN_MOTION_DOT": 4.797e-05, "MEAN_MOTION_DDOT": 0}, "tle": {"line1": "1 35025U 93036AGN 25339.55871368  .00004797  00000+0  71609-3 0  9993", "line2": "2 35025  73.9386  76.9946 0084796 351.3968   8.5744 14.72652613885379"}}, "geometry": {"type": "Point", "coordinates": [-119.09523345464399, 38.76899333293387]}}, {"type": "Feature", "properties": {"norad_id": 35026, "name": "COSMOS 2251 DEB", "group": "cosmos-2251-debris", "lat": 43.582859535630334, "lon": -14.45702294926886, "alt_km": 664.3143234621193, "timestamp": "2025-12-06T22:38:43.124881+00:00", "meta": {"OBJECT_NAME": "COSMOS 2251 DEB", "OBJECT_ID": "1993-036AGP", "EPOCH": "2025-12-06T07:51:48.078720", "MEAN_MOTION": 14.53617344, "ECCENTRICITY": 0.00822532, "INCLINATION": 74.0464, "RA_OF_ASC_NODE": 330.9073, "ARG_OF_PERICENTER": 86.1829, "MEAN_ANOMALY": 338.5159, "EPHEMERIS_TYPE": 0, "CLASSIFICATION_TYPE": "U", "NORAD_CAT_ID": 35026, "ELEMENT_SET_NO": 999, "REV_AT_EPOCH": 88050, "BSTAR": 0.00012460817, "MEAN_MOTION_DOT": 5.15e-06, "MEAN_MOTION_DDOT": 0}, "tle": {"line1": "1 35026U 93036AGP 25340.32763980  .00000515  00000+0  12461-3 0  9996", "line2": "2 35026  74.0464 330.9073 0082253  86.1829 338.5159 14.53617344880505"}}, "geometry": {"type": "Point", "coordinates": [-14.45702294926886, 43.582859535630334]}}, {"type": "Feature", "properties": {"norad_id": 35028, "name": "COSMOS 2251 DEB", "group": "cosmos-2251-debris", "lat": 72.05775724300378, "lon": 39.861676345195946, "alt_km": 652.8233578474119, "timestamp": "2025-12-06T22:38:43.124892+00:00", "meta": {"OBJECT_NAME": "COSMOS 2251 DEB", "OBJECT_ID": "1993-036AGR", "EPOCH": "2025-12-06T14:45:20.784960", "MEAN_MOTION": 14.56559763, "ECCENTRICITY": 0.00822588, "INCLINATION": 74.0381, "RA_OF_ASC_NODE": 282.6027, "ARG_OF_PERICENTER": 57.9846, "MEAN_ANOMALY": 116.6366, "EPHEMERIS_TYPE": 0, "CLASSIFICATION_TYPE": "U", "NORAD_CAT_ID": 35028, "ELEMENT_SET_NO": 999, "REV_AT_EPOCH": 88196, "BSTAR": 0.00020909724, "MEAN_MOTION_DOT": 9.44e-06, "MEAN_MOTION_DDOT": 0}, "tle": {"line1": "1 35028U 93036AGR 25340.61482390  .00000944  00000+0  20910-3 0  9997", "line2": "2 35028  74.0381 282.6027 0082258  57.9846 116.6366 14.56559763881966"}}, "geometry": {"type": "Point", "coordinates": [39.861676345195946, 72.05775724300378]}}, {"type": "Feature", "properties": {"norad_id": 35031, "name": "COSMOS 2251 DEB", "group": "cosmos-2251-debris", "lat": 28.68679954048247, "lon": -81.04834748796696, "alt_km": 750.5136426075042, "timestamp": "2025-12-06T22:38:43.124902+00:00", "meta": {"OBJECT_NAME": "COSMOS 2251 DEB", "OBJECT_ID": "1993-036AGU", "EPOCH": "2025-12-06T02:28:30.271296", "MEAN_MOTION": 14.38280865, "ECCENTRICITY": 0.00185684, "INCLINATION": 74.0385, "RA_OF_ASC_NODE": 271.4894, "ARG_OF_PERICENTER": 6.3258, "MEAN_ANOMALY": 353.8127, "EPHEMERIS_TYPE": 0, "CLASSIFICATION_TYPE": "U", "NORAD_CAT_ID": 35031, "ELEMENT_SET_NO": 999, "REV_AT_EPOCH": 65188, "BSTAR": 0.00033805858, "MEAN_MOTION_DOT": 1.004e-05, "MEAN_MOTION_DDOT": 0}, "tle": {"line1": "1 35031U 93036AGU 25340.10312814  .00001004  00000+0  33806-3 0  9994", "line2": "2 35031  74.0385 271.4894 0018568   6.3258 353.8127 14.38280865651880"}}, "geometry": {"type": "Point", "coordinates": [-81.04834748796696, 28.68679954048247]}}, {"type": "Feature", "properties": {"norad_id": 35032, "name": "COSMOS 2251 DEB", "group": "cosmos-2251-debris", "lat": -9.174895243979877, "lon": -158.87530634110098, "alt_km": 664.5055781825413, "timestamp": "2025-12-06T22:38:43.124922+00:00", "meta": {"OBJECT_NAME": "COSMOS 2251 DEB", "OBJECT_ID": "1993-036AGV", "EPOCH": "2025-12-06T02:09:39.305664", "MEAN_MOTION": 14.58639519, "ECCENTRICITY": 0.00687921, "INCLINATION": 73.8519, "RA_OF_ASC_NODE": 20.0853, "ARG_OF_PERICENTER": 232.4618, "MEAN_ANOMALY": 157.3877, "EPHEMERIS_TYPE": 0, "CLASSIFICATION_TYPE": "U", "NORAD_CAT_ID": 35032, "ELEMENT_SET_NO": 999, "REV_AT_EPOCH": 87577, "BSTAR": 0.0015774319, "MEAN_MOTION_DOT": 7.57e-05, "MEAN_MOTION_DDOT": 0}, "tle": {"line1": "1 35032U 93036AGV 25340.09003826  .00007570  00000+0  15774-2 0  9990", "line2": "2 35032  73.8519  20.0853 0068792 232.4618 157.3877 14.58639519875777"}}, "geometry": {"type": "Point", "coordinates": [-158.87530634110098, -9.174895243979877]}}, {"type": "Feature", "properties": {"norad_id": 35033, "name": "COSMOS 2251 DEB", "group": "cosmos-2251-debris", "lat": 15.326341323388165, "lon": -168.01417215711623, "alt_km": 721.729393399135, "timestamp": "2025-12-06T22:38:43.124933+00:00", "meta": {"OBJECT_NAME": "COSMOS 2251 DEB", "OBJECT_ID": "1993-036AGW", "EPOCH": "2025-12-06T07:40:42.682944", "MEAN_MOTION": 14.50882288, "ECCENTRICITY": 0.00143551, "INCLINATION": 74.0259, "RA_OF_ASC_NODE": 188.6562, "ARG_OF_PERICENTER": 295.5184, "MEAN_ANOMALY": 64.4492, "EPHEMERIS_TYPE": 0, "CLASSIFICATION_TYPE": "U", "NORAD_CAT_ID": 35033, "ELEMENT_SET_NO": 999, "REV_AT_EPOCH": 65834, "BSTAR": 0.0011813512, "MEAN_MOTION_DOT": 4.642e-05, "MEAN_MOTION_DDOT": 0}, "tle": {"line1": "1 35033U 93036AGW 25340.31993846  .00004642  00000+0  11814-2 0  9994", "line2": "2 35033  74.0259 188.6562 0014355 295.5184  64.4492 14.50882288658342"}}, "geometry": {"type": "Point", "coordinates": [-168.01417215711623, 15.326341323388165]}}]}